H1 CPF  1  DLR 2021 07 23 10  7042 technosat            
H2  1704205 6203    42829 2021 07 23 00 00 00 2021 07 30 00 00 00    60 1 1  0 0 0
H9
10 0 59418   7200.000000  0      -1260481.725       6846985.625        233290.096
10 0 59418   7260.000000  0      -1167055.872       6832622.133        682614.198
10 0 59418   7320.000000  0      -1068948.208       6788507.378       1129028.464
10 0 59418   7380.000000  0       -966832.487       6714783.270       1570628.985
10 0 59418   7440.000000  0       -861398.031       6611724.875       2005531.989
10 0 59418   7500.000000  0       -753345.571       6479739.302       2431882.162
10 0 59418   7560.000000  0       -643383.058       6319364.000       2847860.834
10 0 59418   7620.000000  0       -532221.457       6131264.393       3251694.038
10 0 59418   7680.000000  0       -420570.547       5916230.848       3641660.252
10 0 59418   7740.000000  0       -309134.821       5675175.258       4016097.906
10 0 59418   7800.000000  0       -198609.409       5409126.928       4373412.905
10 0 59418   7860.000000  0        -89676.011       5119227.576       4712085.662
10 0 59418   7920.000000  0         17001.059       4806725.811       5030677.429
10 0 59418   7980.000000  0        120778.634       4472971.483       5327836.146
10 0 59418   8040.000000  0        221038.284       4119409.689       5602302.180
10 0 59418   8100.000000  0        317189.759       3747574.177       5852913.740
10 0 59418   8160.000000  0        408674.235       3359080.238       6078611.676
10 0 59418   8220.000000  0        494967.323       2955617.366       6278443.721
10 0 59418   8280.000000  0        575581.885       2538941.682       6451568.314
10 0 59418   8340.000000  0        650070.613       2110868.068       6597257.980
10 0 59418   8400.000000  0        718028.359       1673262.026       6714902.210
10 0 59418   8460.000000  0        779094.216       1228031.346       6804009.774
10 0 59418   8520.000000  0        832953.314        777117.698       6864210.535
10 0 59418   8580.000000  0        879338.381        322488.140       6895256.806
10 0 59418   8640.000000  0        918031.009       -133873.471       6897024.294
10 0 59418   8700.000000  0        948862.629       -589975.236       6869512.558
10 0 59418   8760.000000  0        971715.226      -1043825.993       6812844.856
10 0 59418   8820.000000  0        986521.768      -1493443.998       6727267.519
10 0 59418   8880.000000  0        993266.308      -1936865.613       6613148.897
10 0 59418   8940.000000  0        991983.867      -2372153.922       6470977.781
10 0 59418   9000.000000  0        982760.002      -2797407.296       6301361.350
10 0 59418   9060.000000  0        965730.023      -3210767.799       6105022.518
10 0 59418   9120.000000  0        941077.988      -3610429.264       5882796.836
10 0 59418   9180.000000  0        909035.481      -3994645.210       5635629.040
10 0 59418   9240.000000  0        869880.105      -4361736.541       5364569.124
10 0 59418   9300.000000  0        823933.698      -4710098.953       5070768.012
10 0 59418   9360.000000  0        771560.344      -5038210.108       4755472.835
10 0 59418   9420.000000  0        713164.109      -5344636.536       4420021.726
10 0 59418   9480.000000  0        649186.526      -5628040.113       4065838.151
10 0 59418   9540.000000  0        580103.876      -5887184.097       3694424.886
10 0 59418   9600.000000  0        506424.291      -6120938.731       3307357.630
10 0 59418   9660.000000  0        428684.637      -6328286.361       2906278.275
10 0 59418   9720.000000  0        347447.212      -6508326.022       2492887.847
10 0 59418   9780.000000  0        263296.298      -6660277.450       2068939.238
10 0 59418   9840.000000  0        176834.653      -6783484.626       1636229.727
10 0 59418   9900.000000  0         88679.840      -6877418.808       1196593.256
10 0 59418   9960.000000  0          -539.578      -6941680.938        751892.407
10 0 59418  10020.000000  0        -90187.877      -6976003.320        304010.271
10 0 59418  10080.000000  0       -179626.044      -6980250.667       -145157.744
10 0 59418  10140.000000  0       -268215.639      -6954420.510       -593712.130
10 0 59418  10200.000000  0       -355322.669      -6898642.957      -1039757.475
10 0 59418  10260.000000  0       -440321.405      -6813179.830      -1481410.584
10 0 59418  10320.000000  0       -522598.158      -6698423.241      -1916808.485
10 0 59418  10380.000000  0       -601554.981      -6554893.578      -2344116.368
10 0 59418  10440.000000  0       -676613.276      -6383236.892      -2761535.366
10 0 59418  10500.000000  0       -747217.294      -6184221.693      -3167310.128
10 0 59418  10560.000000  0       -812837.495      -5958735.217      -3559736.183
10 0 59418  10620.000000  0       -872973.746      -5707779.116      -3937167.032
10 0 59418  10680.000000  0       -927158.331      -5432464.650      -4298020.882
10 0 59418  10740.000000  0       -974958.780      -5134007.483      -4640787.044
10 0 59418  10800.000000  0      -1015980.508      -4813722.064      -4964032.015
10 0 59418  10860.000000  0      -1049869.222      -4473015.611      -5266405.193
10 0 59418  10920.000000  0      -1076313.110      -4113381.753      -5546644.231
10 0 59418  10980.000000  0      -1095044.786      -3736393.835      -5803579.987
10 0 59418  11040.000000  0      -1105842.992      -3343697.958      -6036141.083
10 0 59418  11100.000000  0      -1108534.054      -2937005.729      -6243358.065
10 0 59418  11160.000000  0      -1102993.088      -2518086.787      -6424367.100
10 0 59418  11220.000000  0      -1089144.945      -2088761.173      -6578413.251
10 0 59418  11280.000000  0      -1066964.898      -1650891.550      -6704853.342
10 0 59418  11340.000000  0      -1036479.085      -1206375.293      -6803158.406
10 0 59418  11400.000000  0       -997764.689       -757136.461      -6872915.736
10 0 59418  11460.000000  0       -950949.825       -305117.653      -6913830.487
10 0 59418  11520.000000  0       -896213.142        147728.139      -6925726.771
10 0 59418  11580.000000  0       -833783.188        599445.636      -6908548.412
10 0 59418  11640.000000  0       -763937.515       1048085.486      -6862359.324
10 0 59418  11700.000000  0       -687001.516       1491712.455      -6787343.335
10 0 59418  11760.000000  0       -603347.047       1928413.487      -6683803.652
10 0 59418  11820.000000  0       -513390.760       2356305.791      -6552161.942
10 0 59418  11880.000000  0       -417592.167       2773544.840      -6392956.937
10 0 59418  11940.000000  0       -316451.464       3178332.284      -6206842.617
10 0 59418  12000.000000  0       -210507.085       3568923.751      -5994585.869
10 0 59418  12060.000000  0       -100333.043       3943636.359      -5757063.658
10 0 59418  12120.000000  0         13463.936       4300856.032      -5495259.858
10 0 59418  12180.000000  0        130247.499       4639044.664      -5210261.620
10 0 59418  12240.000000  0        249354.954       4956747.016      -4903255.261
10 0 59418  12300.000000  0        370100.746       5252597.303      -4575521.688
10 0 59418  12360.000000  0        491780.125       5525325.433      -4228431.377
10 0 59418  12420.000000  0        613672.963       5773762.860      -3863438.916
10 0 59418  12480.000000  0        735047.696       5996847.995      -3482077.146
10 0 59418  12540.000000  0        855165.396       6193631.221      -3085950.935
10 0 59418  12600.000000  0        973283.945       6363279.420      -2676730.533
10 0 59418  12660.000000  0       1088662.269       6505079.986      -2256144.575
10 0 59418  12720.000000  0       1200564.641       6618444.292      -1825972.743
10 0 59418  12780.000000  0       1308264.973       6702910.569      -1388038.136
10 0 59418  12840.000000  0       1411051.146       6758146.194       -944199.380
10 0 59418  12900.000000  0       1508229.294       6783949.315       -496342.493
10 0 59418  12960.000000  0       1599128.007       6780249.822        -46372.594
10 0 59418  13020.000000  0       1683102.429       6747109.653        403794.490
10 0 59418  13080.000000  0       1759538.224       6684722.487        852240.681
10 0 59418  13140.000000  0       1827855.425       6593412.788       1297054.141
10 0 59418  13200.000000  0       1887512.122       6473634.200       1736337.767
10 0 59418  13260.000000  0       1938007.965       6325967.285       2168217.620
10 0 59418  13320.000000  0       1978887.425       6151116.636       2590851.237
10 0 59418  13380.000000  0       2009742.848       5949907.426       3002435.786
10 0 59418  13440.000000  0       2030217.259       5723281.365       3401216.115
10 0 59418  13500.000000  0       2040006.854       5472291.981       3785492.545
10 0 59418  13560.000000  0       2038863.168       5198099.413       4153628.256
10 0 59418  13620.000000  0       2026595.018       4901964.801       4504056.514
10 0 59418  13680.000000  0       2003070.140       4585243.932       4835287.547
10 0 59418  13740.000000  0       1968216.387       4249380.558       5145914.758
10 0 59418  13800.000000  0       1922022.649       3895899.531       5434620.567
10 0 59418  13860.000000  0       1864539.521       3526399.619       5700181.916
10 0 59418  13920.000000  0       1795879.630       3142546.005       5941475.378
10 0 59418  13980.000000  0       1716217.601       2746062.494       6157481.823
10 0 59418  14040.000000  0       1625789.684       2338723.498       6347290.572
10 0 59418  14100.000000  0       1524893.088       1922345.841       6510103.055
10 0 59418  14160.000000  0       1413884.983       1498780.422       6645235.954
10 0 59418  14220.000000  0       1293181.171       1069903.824       6752123.795
10 0 59418  14280.000000  0       1163254.486        637609.934       6830321.065
10 0 59418  14340.000000  0       1024632.897        203801.597       6879503.889
99
